{
    "links": {
        "self": "http://www.neowsapp.com/rest/v1/neo/3753854?api_key=iIulBulltgU6a56xZRHN4H3l9WmuAYTsLGpBGhQ2"
    },
    "id": "3753854",
    "neo_reference_id": "3753854",
    "name": "(2016 LE10)",
    "designation": "2016 LE10",
    "nasa_jpl_url": "http://ssd.jpl.nasa.gov/sbdb.cgi?sstr=3753854",
    "absolute_magnitude_h": 27.1,
    "estimated_diameter": {
        "kilometers": {
            "estimated_diameter_min": 0.0101054342,
            "estimated_diameter_max": 0.0225964377
        },
        "meters": {
            "estimated_diameter_min": 10.1054341542,
            "estimated_diameter_max": 22.5964377109
        },
        "miles": {
            "estimated_diameter_min": 0.0062792237,
            "estimated_diameter_max": 0.0140407711
        },
        "feet": {
            "estimated_diameter_min": 33.1543125905,
            "estimated_diameter_max": 74.1352966996
        }
    },
    "is_potentially_hazardous_asteroid": false,
    "close_approach_data": [
        {
            "close_approach_date": "1930-11-03",
            "close_approach_date_full": "1930-Nov-03 13:20",
            "epoch_date_close_approach": -1235817600000,
            "relative_velocity": {
                "kilometers_per_second": "6.8659366874",
                "kilometers_per_hour": "24717.3720746661",
                "miles_per_hour": "15358.4137760613"
            },
            "miss_distance": {
                "astronomical": "1.9988074069",
                "lunar": "777.5360812841",
                "kilometers": "299017330.612463303",
                "miles": "185800753.5471594614"
            },
            "orbiting_body": "Juptr"
        },
        {
            "close_approach_date": "1932-09-22",
            "close_approach_date_full": "1932-Sep-22 09:01",
            "epoch_date_close_approach": -1176303540000,
            "relative_velocity": {
                "kilometers_per_second": "19.101106558",
                "kilometers_per_hour": "68763.9836086218",
                "miles_per_hour": "42727.2652594795"
            },
            "miss_distance": {
                "astronomical": "0.2087998652",
                "lunar": "81.2231475628",
                "kilometers": "31236015.090207124",
                "miles": "19409159.7623573512"
            },
            "orbiting_body": "Earth"
        },
        {
            "close_approach_date": "1936-04-29",
            "close_approach_date_full": "1936-Apr-29 22:08",
            "epoch_date_close_approach": -1062640320000,
            "relative_velocity": {
                "kilometers_per_second": "27.0293254663",
                "kilometers_per_hour": "97305.5716787171",
                "miles_per_hour": "60461.8981355895"
            },
            "miss_distance": {
                "astronomical": "0.4665847194",
                "lunar": "181.5014558466",
                "kilometers": "69800080.196787678",
                "miles": "43371758.6591108364"
            },
            "orbiting_body": "Earth"
        },
        {
            "close_approach_date": "2016-06-09",
            "close_approach_date_full": "2016-Jun-09 08:43",
            "epoch_date_close_approach": 1465461780000,
            "relative_velocity": {
                "kilometers_per_second": "12.198145329",
                "kilometers_per_hour": "43913.3231843042",
                "miles_per_hour": "27286.0312863806"
            },
            "miss_distance": {
                "astronomical": "0.003040972",
                "lunar": "1.182938108",
                "kilometers": "454922.93392964",
                "miles": "282676.003283432"
            },
            "orbiting_body": "Earth"
        },
        {
            "close_approach_date": "2016-06-09",
            "close_approach_date_full": "2016-Jun-09 08:54",
            "epoch_date_close_approach": 1465462440000,
            "relative_velocity": {
                "kilometers_per_second": "13.1879557316",
                "kilometers_per_hour": "47476.6406337949",
                "miles_per_hour": "29500.1381760377"
            },
            "miss_distance": {
                "astronomical": "0.0054636989",
                "lunar": "2.1253788721",
                "kilometers": "817357.717761343",
                "miles": "507882.5349908134"
            },
            "orbiting_body": "Moon"
        }
    ],
    "orbital_data": {
        "orbit_id": "4",
        "orbit_determination_date": "2017-04-06 08:25:27",
        "first_observation_date": "2016-06-08",
        "last_observation_date": "2016-06-09",
        "data_arc_in_days": 1,
        "observations_used": 36,
        "orbit_uncertainty": "7",
        "minimum_orbit_intersection": ".0013101",
        "jupiter_tisserand_invariant": "3.220",
        "epoch_osculation": "2459000.5",
        "eccentricity": ".6194843240515846",
        "semi_major_axis": "2.419172020980305",
        "inclination": "3.24592665761976",
        "ascending_node_longitude": "257.3369869570431",
        "orbital_period": "1374.35381834164",
        "perihelion_distance": ".9205328767988148",
        "perihelion_argument": "42.2289921146408",
        "aphelion_distance": "3.917811165161794",
        "perihelion_time": "2458954.229107172114",
        "mean_anomaly": "12.12025694965425",
        "mean_motion": ".261941281201076",
        "equinox": "J2000",
        "orbit_class": {
            "orbit_class_type": "APO",
            "orbit_class_description": "Near-Earth asteroid orbits which cross the Earth’s orbit similar to that of 1862 Apollo",
            "orbit_class_range": "a (semi-major axis) > 1.0 AU; q (perihelion) < 1.017 AU"
        }
    },
    "is_sentry_object": false
}